[{"OBJECT_NAME":"HIBARI","OBJECT_ID":"2021-102F","EPOCH":"2026-03-09T16:55:51.090816","MEAN_MOTION":15.29554512,"ECCENTRICITY":0.00120742,"INCLINATION":97.3381,"RA_OF_ASC_NODE":115.826,"ARG_OF_PERICENTER":186.5211,"MEAN_ANOMALY":173.5875,"EPHEMERIS_TYPE":0,"CLASSIFICATION_TYPE":"U","NORAD_CAT_ID":49400,"ELEMENT_SET_NO":999,"REV_AT_EPOCH":23897,"BSTAR":0.00042758039,"MEAN_MOTION_DOT":0.00012206,"MEAN_MOTION_DDOT":0},{"OBJECT_NAME":"STARLINK-36131","OBJECT_ID":"2025-294C","EPOCH":"2026-03-09T23:00:30.180096","MEAN_MOTION":15.27587084,"ECCENTRICITY":0.00013291,"INCLINATION":43.0026,"RA_OF_ASC_NODE":36.2761,"ARG_OF_PERICENTER":252.9195,"MEAN_ANOMALY":107.1511,"EPHEMERIS_TYPE":0,"CLASSIFICATION_TYPE":"U","NORAD_CAT_ID":67032,"ELEMENT_SET_NO":999,"REV_AT_EPOCH":1484,"BSTAR":0.0010697322,"MEAN_MOTION_DOT":0.00029298,"MEAN_MOTION_DDOT":0}]
